STARLINK-37200          
1 68339U 26059U   26094.85303311  .00171022  00000+0  85326-3 0  9995
2 68339  53.1600 231.6207 0001449  45.9142 314.1999 15.80865241  2110
STARLINK-37185          
1 68340U 26059V   26094.85153544  .00241349  00000+0  11910-2 0  9995
2 68340  53.1600 231.6104 0001290  39.0241 321.0875 15.80899770  2110
STARLINK-37181          
1 68341U 26059W   26094.85078514  .00198185  00000+0  98505-3 0  9994
2 68341  53.1599 231.6053 0001435 119.6685 240.4481 15.80866613  2116
STARLINK-37192          
1 68342U 26059X   26094.84928015  .00163751  00000+0  81806-3 0  9991
2 68342  53.1601 231.5952 0000556 349.4647  10.6364 15.80859052  2118
STARLINK-37158          
1 68343U 26059Y   26094.84853064  .00195089  00000+0  96816-3 0  9999
2 68343  53.1600 231.5905 0000520  89.8849 270.2233 15.80909149  2118
STARLINK-36380          
1 68344U 26059Z   26094.85002865  .00162029  00000+0  80912-3 0  9994
2 68344  53.1601 231.6008 0000617 140.7947 219.3121 15.80873625  2117
STARLINK-37214          
1 68345U 26059AA  26094.84702942  .00146709  00000+0  73465-3 0  9999
2 68345  53.1595 231.5801 0001037  64.4755 295.6375 15.80861993  2119
STARLINK-37169          
1 68346U 26059AB  26094.78305831  .00183324  00000+0  91272-3 0  9999
2 68346  53.1599 231.8915 0000836  52.1824 307.9274 15.80873963  2104
STARLINK-37136          
1 68347U 26059AC  26094.78231051  .00249014  00000+0  12279-2 0  9990
2 68347  53.1594 231.8867 0001376  82.9980 277.1200 15.80894573  2107
STARLINK-37182          
1 68348U 26059AD  26094.84777795  .00205413  00000+0  10187-2 0  9999
2 68348  53.1599 231.5847 0000856  19.5124 340.5931 15.80894826  2114
STARLINK-37183          
1 68349U 26059AE  26094.84477797  .00179872  00000+0  89557-3 0  9996
2 68349  53.1589 231.5638 0001149 119.3658 240.7480 15.80883494  2118
CENTISPACE-1 OBJECT A   
1 68350U 26060A   26094.71725959 -.00126596  00000+0 -19085-1 0  9996
2 68350  54.9826 335.4497 0012126 317.5330  42.4730 14.74756185  1938
CENTISPACE-1 OBJECT B   
1 68351U 26060B   26094.78445363  .00002174  00000+0  35156-3 0  9994
2 68351  54.9820 335.1667 0013530 326.8800  33.1351 14.74944202  1940
CENTISPACE-1 OBJECT C   
1 68352U 26060C   26094.91841024  .00000077  00000+0  42255-4 0  9993
2 68352  54.9869 334.6172 0014687 333.2405  26.7835 14.75016738  1968
CENTISPACE-1 OBJECT D   
1 68353U 26060D   26094.78288049  .00000118  00000+0  48317-4 0  9992
2 68353  54.9868 335.1678 0011960 335.0245  25.0175 14.75008380  1949
CENTISPACE-1 OBJECT E   
1 68354U 26060E   26094.91762497  .00000080  00000+0  42709-4 0  9999
2 68354  54.9771 334.5948 0013153 335.2119  24.8247 14.74992565  1969
CENTISPACE-1 OBJECT F   
1 68355U 26060F   26094.91763061  .00000080  00000+0  42621-4 0  9991
2 68355  54.9761 334.5955 0013393 331.7491  28.2780 14.75073657  1960
CENTISPACE-1 OBJECT G   
1 68356U 26060G   26094.64570275  .00000126  00000+0  49346-4 0  9997
2 68356  54.9929 335.7064 0014233 337.9700  22.0687 14.75216843  1926
CENTISPACE-1 OBJECT H   
1 68357U 26060H   26092.40903992  .00000123  00000+0  48805-4 0  9992
2 68357  54.9838 344.8287 0013821 328.1926  31.8237 14.75277593  1599
CENTISPACE-1 OBJECT J   
1 68358U 26060J   26094.91585900  .00000080  00000+0  42543-4 0  9991
2 68358  54.9830 334.5877 0015037 333.6169  26.4063 14.75290843  1965
CENTISPACE-1 OBJECT K   
1 68359U 26060K   26094.16969185  .00000130  00000+0  49717-4 0  9996
2 68359  54.9784 337.6182 0015038 331.1576  28.8591 14.75501463  1856
RASSVET-3 1             
1 68360U 26061A   26094.68623751  .00135937  53612-5  44386-3 0  9995
2 68360  82.2954  95.1463 0024823  30.5213 329.7497 15.89997805  1908
RASSVET-3 2             
1 68361U 26061B   26094.81442585  .00067215  43085-6  22769-3 0  9993
2 68361  82.2971  95.0082 0026254  29.5990 330.6761 15.89155749  1924
RASSVET-3 3             
1 68362U 26061C   26094.81426987  .00066942  41840-6  22682-3 0  9999
2 68362  82.2971  95.0077 0026086  29.4431 330.8303 15.89158703  1928
RASSVET-3 4             
1 68363U 26061D   26094.81411146  .00066321  39018-6  22451-3 0  9990
2 68363  82.2971  95.0077 0026122  29.3347 330.9384 15.89174251  1921
RASSVET-3 5             
1 68364U 26061E   26094.81397141  .00065831  36817-6  22263-3 0  9999
2 68364  82.2971  95.0072 0026065  29.3904 330.8827 15.89194973  1926
RASSVET-3 6             
1 68365U 26061F   26094.81355374  .00066480  39941-6  22364-3 0  9996
2 68365  82.2971  95.0067 0025903  29.5163 330.7564 15.89308129  1927
RASSVET-3 7             
1 68366U 26061G   26094.81374290  .00065943  37379-6  22278-3 0  9995
2 68366  82.2970  95.0071 0025855  29.3668 330.9049 15.89225272  1923
RASSVET-3 8             
1 68367U 26061H   26094.81383932  .00067106  42690-6  22691-3 0  9993
2 68367  82.2971  95.0070 0025881  29.2347 331.0366 15.89208553  1923
RASSVET-3 9             
1 68368U 26061J   26094.93817863  .00123511  42180-5  40285-3 0  9997
2 68368  82.2961  94.8615 0024944  29.2361 331.0301 15.90008101  1940
RASSVET-3 10            
1 68369U 26061K   26094.81349173  .00067951  46704-6  22927-3 0  9994
2 68369  82.2971  95.0066 0025725  29.2887 330.9820 15.89259602  1920
RASSVET-3 11            
1 68370U 26061L   26094.75019279  .00075664  85031-6  25518-3 0  9995
2 68370  82.2970  95.0772 0025478  29.4612 330.8088 15.89289604  1917
RASSVET-3 12            
1 68371U 26061M   26094.74990215  .00077799  96509-6  26158-3 0  9997
2 68371  82.2970  95.0769 0025445  29.4513 330.8186 15.89354026  1918
RASSVET-3 13            
1 68372U 26061N   26094.74973244  .00075857  86188-6  25516-3 0  9993
2 68372  82.2970  95.0765 0025230  29.2717 330.9961 15.89353342  1913
RASSVET-3 14            
1 68373U 26061P   26094.93814210  .00068743  50801-6  22990-3 0  9994
2 68373  82.2972  94.8621 0025219  28.3293 331.9343 15.89457715  1947
RASSVET-3 15            
1 68374U 26061Q   26094.74919301  .00076801  91374-6  25735-3 0  9995
2 68374  82.2969  95.0760 0024964  29.1246 331.1411 15.89441366  1914
RASSVET-3 16            
1 68375U 26061R   26094.87274409  .00086531  14894-5  27822-3 0  9994
2 68375  82.2959  94.9290 0024024  30.3095 329.9560 15.90304258  1935
SUPERVIEW NEO-2 OBJECT A
1 68377U 26062A   26094.93345388  .00004120  00000+0  19091-3 0  9990
2 68377  97.4367 103.2821 0006591 227.7269 132.3408 15.20626001  1524
SUPERVIEW NEO-2 OBJECT B
1 68378U 26062B   26090.72162118  .00004270  00000+0  19791-3 0  9995
2 68378  97.4347  99.1253 0008952 250.4427 109.5842 15.20585060   882
CZ-2D R/B               
1 68379U 26062C   26094.99511409  .00012520  00000+0  39995-3 0  9995
2 68379  97.4982 103.3807 0052595  26.7701 333.6237 15.31235219  1544
STARLINK-36296          
1 68380U 26063A   26094.91668981  .00495110  10474-3  11254-2 0  9995
2 68380  97.2836 235.8845 0001096  33.4323 314.9180 15.97508221  2672
STARLINK-37111          
1 68381U 26063B   26094.91668981 -.02093137  11650-2 -70742-2 0  9996
2 68381  97.2836 235.8767 0001436  70.7797 259.7107 15.90101309  2677
STARLINK-36946          
1 68382U 26063C   26094.91668981 -.02116618  11913-2 -71083-2 0  9998
2 68382  97.2829 235.8775 0001398  73.1567 260.7500 15.90230234  2677
STARLINK-37121          
1 68383U 26063D   26094.91668981 -.02119945  11979-2 -70322-2 0  9992
2 68383  97.2830 235.8810 0001423  68.5579 271.9968 15.90475416  2675
STARLINK-37137          
1 68384U 26063E   26094.91668981 -.02112232  11884-2 -70442-2 0  9993
2 68384  97.2831 235.8794 0001408  69.7518 267.2587 15.90368585  2670
STARLINK-37128          
1 68385U 26063F   26094.91668981 -.02143384  12245-2 -70699-2 0  9992
2 68385  97.2831 235.8828 0001379  73.5750 270.5403 15.90590006  2621
STARLINK-37198          
1 68386U 26063G   26094.91668981 -.02142209  12250-2 -70158-2 0  9994
2 68386  97.2826 235.8836 0001284  67.6805 279.4874 15.90730962  2677
STARLINK-37223          
1 68387U 26063H   26094.91668981 -.02164376  12508-2 -70446-2 0  9990
2 68387  97.2825 235.8852 0001407  70.3181 280.2397 15.90855575  2678
STARLINK-37203          
1 68388U 26063J   26094.91668981 -.02171445  12600-2 -70281-2 0  9996
2 68388  97.2824 235.8866 0001229  75.7851 278.2531 15.90967137  2673
STARLINK-37197          
1 68389U 26063K   26094.91668981 -.02168333  12598-2 -69297-2 0  9990
2 68389  97.2824 235.8899 0001533  58.6997 301.7003 15.91215376  2677
STARLINK-37193          
1 68390U 26063L   26095.09092345  .00948776  49540-3  12560-2 0  9999
2 68390  97.2818 236.1140 0001196 324.7874  35.3329 16.06884715  1790
STARLINK-37216          
1 68391U 26063M   26094.91668981 -.02184653  12798-2 -69325-2 0  9990
2 68391  97.2822 235.8911 0001308  69.1832 294.3458 15.91356827  2676
STARLINK-37215          
1 68392U 26063N   26094.91668981 -.02203701  13027-2 -69539-2 0  9990
2 68392  97.2819 235.8926 0001331  66.4076 300.6445 15.91468341  2677
STARLINK-37184          
1 68393U 26063P   26094.91668981 -.02212510  13140-2 -69449-2 0  9995
2 68393  97.2819 235.8941 0001365  68.3201 302.2937 15.91572790  2671
STARLINK-37157          
1 68394U 26063Q   26094.91668981 -.02224877  13300-2 -69354-2 0  9998
2 68394  97.2815 235.8949 0001445  61.9092 311.7735 15.91709360  2678
STARLINK-37172          
1 68395U 26063R   26094.91668981 -.02238753  13493-2 -68955-2 0  9996
2 68395  97.2811 235.8975 0001398  63.7288 316.6145 15.91944757  2678
STARLINK-37190          
1 68396U 26063S   26094.91668981 -.02217451  13233-2 -68687-2 0  9993
2 68396  97.2810 235.8962 0001416  65.2862 311.5335 15.91832305  2670
STARLINK-37194          
1 68397U 26063T   26094.91668981 -.02243602  13565-2 -68703-2 0  9998
2 68397  97.2810 235.8992 0001466  59.3653 324.3162 15.92058564  2679
STARLINK-37220          
1 68398U 26063U   26094.91668981 -.02243175  13593-2 -67896-2 0  9997
2 68398  97.2808 235.9024 0001559  58.0585 332.2280 15.92284089  2679
